STARLINK-3836           
1 52577U 22051AT  26068.46490935  .00002392  00000+0  16828-3 0  9991
2 52577  53.2177 135.1276 0001335  88.8035 271.3110 15.08847334211341
DISKSAT A               
1 67222U 25305D   26068.54789610  .00013824  00000+0  90452-3 0  9996
2 67222  45.0023 251.6019 0004082 318.1929  41.8634 15.07741062 12266
